CCSDS_OMM_VERS = 2.0
CREATION_DATE  = 
ORIGINATOR     = 

OBJECT_NAME    = SOYUZ-MS 28
OBJECT_ID      = 2025-275A
CENTER_NAME    = EARTH
REF_FRAME      = TEME
TIME_SYSTEM    = UTC
MEAN_ELEMENT_THEORY = SGP/SGP4

EPOCH          = 2025-12-17T01:19:48.717408
MEAN_MOTION    = 15.49629327
ECCENTRICITY   = .00031735
INCLINATION    = 51.6309
RA_OF_ASC_NODE = 121.1077
ARG_OF_PERICENTER = 260.4156
MEAN_ANOMALY   = 99.6474

EPHEMERIS_TYPE = 0
CLASSIFICATION_TYPE = U
NORAD_CAT_ID   = 66664
ELEMENT_SET_NO = 999
REV_AT_EPOCH   = 128
BSTAR          = .14583435E-3
MEAN_MOTION_DOT = .777E-4
MEAN_MOTION_DDOT = 0

CCSDS_OMM_VERS = 2.0
CREATION_DATE  = 
ORIGINATOR     = 

OBJECT_NAME    = 1998-067XS
OBJECT_ID      = 1998-067XS
CENTER_NAME    = EARTH
REF_FRAME      = TEME
TIME_SYSTEM    = UTC
MEAN_ELEMENT_THEORY = SGP/SGP4

EPOCH          = 2025-12-16T12:45:26.228448
MEAN_MOTION    = 15.50774437
ECCENTRICITY   = .00032711
INCLINATION    = 51.6305
RA_OF_ASC_NODE = 123.6106
ARG_OF_PERICENTER = 220.1232
MEAN_ANOMALY   = 139.9515

EPHEMERIS_TYPE = 0
CLASSIFICATION_TYPE = U
NORAD_CAT_ID   = 66906
ELEMENT_SET_NO = 999
REV_AT_EPOCH   = 220
BSTAR          = .42417105E-3
MEAN_MOTION_DOT = .24501E-3
MEAN_MOTION_DDOT = 0

CCSDS_OMM_VERS = 2.0
CREATION_DATE  = 
ORIGINATOR     = 

OBJECT_NAME    = 1998-067XT
OBJECT_ID      = 1998-067XT
CENTER_NAME    = EARTH
REF_FRAME      = TEME
TIME_SYSTEM    = UTC
MEAN_ELEMENT_THEORY = SGP/SGP4

EPOCH          = 2025-12-16T20:21:31.143168
MEAN_MOTION    = 15.51965497
ECCENTRICITY   = .00040676
INCLINATION    = 51.6300
RA_OF_ASC_NODE = 121.9750
ARG_OF_PERICENTER = 250.8278
MEAN_ANOMALY   = 109.2271

EPHEMERIS_TYPE = 0
CLASSIFICATION_TYPE = U
NORAD_CAT_ID   = 66907
ELEMENT_SET_NO = 999
REV_AT_EPOCH   = 225
BSTAR          = .93338761E-3
MEAN_MOTION_DOT = .57093E-3
MEAN_MOTION_DDOT = 0

CCSDS_OMM_VERS = 2.0
CREATION_DATE  = 
ORIGINATOR     = 

OBJECT_NAME    = 1998-067XU
OBJECT_ID      = 1998-067XU
CENTER_NAME    = EARTH
REF_FRAME      = TEME
TIME_SYSTEM    = UTC
MEAN_ELEMENT_THEORY = SGP/SGP4

EPOCH          = 2025-12-16T14:09:49.500000
MEAN_MOTION    = 15.52025730
ECCENTRICITY   = .00042401
INCLINATION    = 51.6296
RA_OF_ASC_NODE = 123.2512
ARG_OF_PERICENTER = 248.5284
MEAN_ANOMALY   = 111.5254

EPHEMERIS_TYPE = 0
CLASSIFICATION_TYPE = U
NORAD_CAT_ID   = 66908
ELEMENT_SET_NO = 999
REV_AT_EPOCH   = 221
BSTAR          = .90601602E-3
MEAN_MOTION_DOT = .55516E-3
MEAN_MOTION_DDOT = 0

CCSDS_OMM_VERS = 2.0
CREATION_DATE  = 
ORIGINATOR     = 

OBJECT_NAME    = SILVERSAT
OBJECT_ID      = 1998-067XV
CENTER_NAME    = EARTH
REF_FRAME      = TEME
TIME_SYSTEM    = UTC
MEAN_ELEMENT_THEORY = SGP/SGP4

EPOCH          = 2025-12-16T14:08:52.774080
MEAN_MOTION    = 15.52156791
ECCENTRICITY   = .00040754
INCLINATION    = 51.6305
RA_OF_ASC_NODE = 123.2468
ARG_OF_PERICENTER = 249.7085
MEAN_ANOMALY   = 110.3467

EPHEMERIS_TYPE = 0
CLASSIFICATION_TYPE = U
NORAD_CAT_ID   = 66909
ELEMENT_SET_NO = 999
REV_AT_EPOCH   = 221
BSTAR          = .95917161E-3
MEAN_MOTION_DOT = .59105E-3
MEAN_MOTION_DDOT = 0

CCSDS_OMM_VERS = 2.0
CREATION_DATE  = 
ORIGINATOR     = 

OBJECT_NAME    = 1998-067XW
OBJECT_ID      = 1998-067XW
CENTER_NAME    = EARTH
REF_FRAME      = TEME
TIME_SYSTEM    = UTC
MEAN_ELEMENT_THEORY = SGP/SGP4

EPOCH          = 2025-12-17T08:38:52.886112
MEAN_MOTION    = 15.52302683
ECCENTRICITY   = .00044955
INCLINATION    = 51.6301
RA_OF_ASC_NODE = 119.3949
ARG_OF_PERICENTER = 232.9871
MEAN_ANOMALY   = 127.0708

EPHEMERIS_TYPE = 0
CLASSIFICATION_TYPE = U
NORAD_CAT_ID   = 66910
ELEMENT_SET_NO = 999
REV_AT_EPOCH   = 233
BSTAR          = .84033586E-3
MEAN_MOTION_DOT = .51954E-3
MEAN_MOTION_DDOT = 0

CCSDS_OMM_VERS = 2.0
CREATION_DATE  = 
ORIGINATOR     = 

OBJECT_NAME    = 1998-067XX
OBJECT_ID      = 1998-067XX
CENTER_NAME    = EARTH
REF_FRAME      = TEME
TIME_SYSTEM    = UTC
MEAN_ELEMENT_THEORY = SGP/SGP4

EPOCH          = 2025-12-16T21:47:43.238976
MEAN_MOTION    = 15.52613586
ECCENTRICITY   = .00043348
INCLINATION    = 51.6301
RA_OF_ASC_NODE = 121.6250
ARG_OF_PERICENTER = 233.1446
MEAN_ANOMALY   = 126.9147

EPHEMERIS_TYPE = 0
CLASSIFICATION_TYPE = U
NORAD_CAT_ID   = 66911
ELEMENT_SET_NO = 999
REV_AT_EPOCH   = 225
BSTAR          = .10270011E-2
MEAN_MOTION_DOT = .64419E-3
MEAN_MOTION_DDOT = 0

CCSDS_OMM_VERS = 2.0
CREATION_DATE  = 
ORIGINATOR     = 

OBJECT_NAME    = 1998-067XY
OBJECT_ID      = 1998-067XY
CENTER_NAME    = EARTH
REF_FRAME      = TEME
TIME_SYSTEM    = UTC
MEAN_ELEMENT_THEORY = SGP/SGP4

EPOCH          = 2025-12-16T15:46:04.337760
MEAN_MOTION    = 15.51521639
ECCENTRICITY   = .00042238
INCLINATION    = 51.6299
RA_OF_ASC_NODE = 122.9476
ARG_OF_PERICENTER = 244.4597
MEAN_ANOMALY   = 115.5956

EPHEMERIS_TYPE = 0
CLASSIFICATION_TYPE = U
NORAD_CAT_ID   = 66912
ELEMENT_SET_NO = 999
REV_AT_EPOCH   = 221
BSTAR          = .74796807E-3
MEAN_MOTION_DOT = .44864E-3
MEAN_MOTION_DDOT = 0

