SOYUZ-MS 28             
1 66664U 25275A   25351.05542497  .00007770  00000+0  14583-3 0  9995
2 66664  51.6309 121.1077 0003173 260.4156  99.6474 15.49629327  1289
1998-067XS              
1 66906U 98067XS  25350.53155357  .00024501  00000+0  42417-3 0  9998
2 66906  51.6305 123.6106 0003271 220.1232 139.9515 15.50774437  2203
1998-067XT              
1 66907U 98067XT  25350.84827712  .00057093  00000+0  93339-3 0  9995
2 66907  51.6300 121.9750 0004067 250.8278 109.2271 15.51965497  2252
1998-067XU              
1 66908U 98067XU  25350.59015625  .00055516  00000+0  90602-3 0  9998
2 66908  51.6296 123.2512 0004240 248.5284 111.5254 15.52025730  2213
SILVERSAT               
1 66909U 98067XV  25350.58949970  .00059105  00000+0  95917-3 0  9999
2 66909  51.6305 123.2468 0004075 249.7085 110.3467 15.52156791  2218
1998-067XW              
1 66910U 98067XW  25351.36033433  .00051954  00000+0  84034-3 0  9998
2 66910  51.6301 119.3949 0004495 232.9871 127.0708 15.52302683  2338
1998-067XX              
1 66911U 98067XX  25350.90813934  .00064419  00000+0  10270-2 0  9990
2 66911  51.6301 121.6250 0004334 233.1446 126.9147 15.52613586  2256
1998-067XY              
1 66912U 98067XY  25350.65699465  .00044864  00000+0  74797-3 0  9991
2 66912  51.6299 122.9476 0004223 244.4597 115.5956 15.51521639  2210
